[{"OBJECT_NAME":"BUFENG 1B","OBJECT_ID":"2019-032B","EPOCH":"2026-03-09T19:57:27.457920","MEAN_MOTION":15.25619535,"ECCENTRICITY":0.00242037,"INCLINATION":44.9701,"RA_OF_ASC_NODE":192.0248,"ARG_OF_PERICENTER":123.8847,"MEAN_ANOMALY":236.4342,"EPHEMERIS_TYPE":0,"CLASSIFICATION_TYPE":"U","NORAD_CAT_ID":44311,"ELEMENT_SET_NO":999,"REV_AT_EPOCH":37256,"BSTAR":0.00059375374,"MEAN_MOTION_DOT":0.00015236,"MEAN_MOTION_DDOT":0},{"OBJECT_NAME":"STARLINK-35993","OBJECT_ID":"2025-270V","EPOCH":"2026-03-09T00:42:29.978496","MEAN_MOTION":15.27598649,"ECCENTRICITY":0.00013521,"INCLINATION":43.0031,"RA_OF_ASC_NODE":60.0125,"ARG_OF_PERICENTER":241.7516,"MEAN_ANOMALY":118.3199,"EPHEMERIS_TYPE":0,"CLASSIFICATION_TYPE":"U","NORAD_CAT_ID":66607,"ELEMENT_SET_NO":999,"REV_AT_EPOCH":1750,"BSTAR":0.0010469499,"MEAN_MOTION_DOT":0.00028676,"MEAN_MOTION_DDOT":0}]
